{
  "type": "FeatureCollection",
  "features": [
    {
      "type": "Feature",
      "properties": {
        "norad_id": 30816,
        "name": "FENGYUN 1C DEB",
        "group": "fengyun-1c-debris",
        "lat": 74.95247131254224,
        "lon": 16.13418699554096,
        "alt_km": 787.2540509815417,
        "timestamp": "2025-12-07T09:35:10.069223+00:00",
        "meta_object_name": "FENGYUN 1C DEB",
        "meta_object_id": "1999-025AVA",
        "meta_epoch": "2025-12-06T16:51:37.223424",
        "meta_mean_motion": 14.17952095,
        "meta_eccentricity": 0.00528728,
        "meta_inclination": 98.9153,
        "meta_ra_of_asc_node": 51.1585,
        "meta_arg_of_pericenter": 72.7843,
        "meta_mean_anomaly": 49.5196,
        "meta_ephemeris_type": 0,
        "meta_classification_type": "U",
        "meta_norad_cat_id": 30816,
        "meta_element_set_no": 999,
        "meta_rev_at_epoch": 96308,
        "meta_bstar": 0.0027362309,
        "meta_mean_motion_dot": 5.635e-05,
        "meta_mean_motion_ddot": 0,
        "tle_line1": "1 30816U 99025AVA 25340.70251416  .00005635  00000+0  27362-2 0  9993",
        "tle_line2": "2 30816  98.9153  51.1585 0052872  72.7843  49.5196 14.17952095963088"
      },
      "geometry": {
        "type": "Point",
        "coordinates": [
          16.13418699554096,
          74.95247131254224
        ]
      }
    },
    {
      "type": "Feature",
      "properties": {
        "norad_id": 30817,
        "name": "FENGYUN 1C DEB",
        "group": "fengyun-1c-debris",
        "lat": 46.50120097592283,
        "lon": 161.19589465348582,
        "alt_km": 912.3015820817182,
        "timestamp": "2025-12-07T09:35:10.069233+00:00",
        "meta_object_name": "FENGYUN 1C DEB",
        "meta_object_id": "1999-025AVB",
        "meta_epoch": "2025-12-06T22:39:46.809792",
        "meta_mean_motion": 14.00713811,
        "meta_eccentricity": 0.00573211,
        "meta_inclination": 98.7856,
        "meta_ra_of_asc_node": 331.3789,
        "meta_arg_of_pericenter": 261.2824,
        "meta_mean_anomaly": 98.1846,
        "meta_ephemeris_type": 0,
        "meta_classification_type": "U",
        "meta_norad_cat_id": 30817,
        "meta_element_set_no": 999,
        "meta_rev_at_epoch": 95828,
        "meta_bstar": 0.00045954076,
        "meta_mean_motion_dot": 6.52e-06,
        "meta_mean_motion_ddot": 0,
        "tle_line1": "1 30817U 99025AVB 25340.94429178  .00000652  00000+0  45954-3 0  9994",
        "tle_line2": "2 30817  98.7856 331.3789 0057321 261.2824  98.1846 14.00713811958285"
      },
      "geometry": {
        "type": "Point",
        "coordinates": [
          161.19589465348582,
          46.50120097592283
        ]
      }
    },
    {
      "type": "Feature",
      "properties": {
        "norad_id": 30820,
        "name": "FENGYUN 1C DEB",
        "group": "fengyun-1c-debris",
        "lat": -37.75165341742741,
        "lon": 84.5820362438646,
        "alt_km": 845.5902191493569,
        "timestamp": "2025-12-07T09:35:10.069243+00:00",
        "meta_object_name": "FENGYUN 1C DEB",
        "meta_object_id": "1999-025AVE",
        "meta_epoch": "2025-12-06T00:49:13.347264",
        "meta_mean_motion": 14.21311746,
        "meta_eccentricity": 0.00519838,
        "meta_inclination": 98.6765,
        "meta_ra_of_asc_node": 76.4502,
        "meta_arg_of_pericenter": 206.0916,
        "meta_mean_anomaly": 333.5627,
        "meta_ephemeris_type": 0,
        "meta_classification_type": "U",
        "meta_norad_cat_id": 30820,
        "meta_element_set_no": 999,
        "meta_rev_at_epoch": 96328,
        "meta_bstar": 0.0033440412,
        "meta_mean_motion_dot": 7.356e-05,
        "meta_mean_motion_ddot": 0,
        "tle_line1": "1 30820U 99025AVE 25340.03418226  .00007356  00000+0  33440-2 0  9994",
        "tle_line2": "2 30820  98.6765  76.4502 0051983 206.0916 333.5627 14.21311746963287"
      },
      "geometry": {
        "type": "Point",
        "coordinates": [
          84.5820362438646,
          -37.75165341742741
        ]
      }
    },
    {
      "type": "Feature",
      "properties": {
        "norad_id": 30821,
        "name": "FENGYUN 1C DEB",
        "group": "fengyun-1c-debris",
        "lat": -8.11514451649029,
        "lon": -57.76244274961798,
        "alt_km": 679.9407126594106,
        "timestamp": "2025-12-07T09:35:10.069254+00:00",
        "meta_object_name": "FENGYUN 1C DEB",
        "meta_object_id": "1999-025AVF",
        "meta_epoch": "2025-12-01T08:43:29.259840",
        "meta_mean_motion": 14.49523426,
        "meta_eccentricity": 0.00862987,
        "meta_inclination": 99.1021,
        "meta_ra_of_asc_node": 117.0363,
        "meta_arg_of_pericenter": 240.0336,
        "meta_mean_anomaly": 149.0962,
        "meta_ephemeris_type": 0,
        "meta_classification_type": "U",
        "meta_norad_cat_id": 30821,
        "meta_element_set_no": 999,
        "meta_rev_at_epoch": 98624,
        "meta_bstar": 0.0010654422,
        "meta_mean_motion_dot": 4.23e-05,
        "meta_mean_motion_ddot": 0,
        "tle_line1": "1 30821U 99025AVF 25335.36353310  .00004230  00000+0  10654-2 0  9997",
        "tle_line2": "2 30821  99.1021 117.0363 0086298 240.0336 149.0962 14.49523426986240"
      },
      "geometry": {
        "type": "Point",
        "coordinates": [
          -57.76244274961798,
          -8.11514451649029
        ]
      }
    },
    {
      "type": "Feature",
      "properties": {
        "norad_id": 30822,
        "name": "FENGYUN 1C DEB",
        "group": "fengyun-1c-debris",
        "lat": 59.66027898745809,
        "lon": -155.16272040303343,
        "alt_km": 901.9128965546652,
        "timestamp": "2025-12-07T09:35:10.069264+00:00",
        "meta_object_name": "FENGYUN 1C DEB",
        "meta_object_id": "1999-025AVG",
        "meta_epoch": "2025-12-06T20:15:34.622208",
        "meta_mean_motion": 14.11330334,
        "meta_eccentricity": 0.00731726,
        "meta_inclination": 98.7358,
        "meta_ra_of_asc_node": 9.0662,
        "meta_arg_of_pericenter": 302.3098,
        "meta_mean_anomaly": 237.141,
        "meta_ephemeris_type": 0,
        "meta_classification_type": "U",
        "meta_norad_cat_id": 30822,
        "meta_element_set_no": 999,
        "meta_rev_at_epoch": 96618,
        "meta_bstar": 0.00059942278,
        "meta_mean_motion_dot": 1.068e-05,
        "meta_mean_motion_ddot": 0,
        "tle_line1": "1 30822U 99025AVG 25340.84415072  .00001068  00000+0  59942-3 0  9991",
        "tle_line2": "2 30822  98.7358   9.0662 0073172 302.3098 237.1410 14.11330334966186"
      },
      "geometry": {
        "type": "Point",
        "coordinates": [
          -155.16272040303343,
          59.66027898745809
        ]
      }
    },
    {
      "type": "Feature",
      "properties": {
        "norad_id": 30823,
        "name": "FENGYUN 1C DEB",
        "group": "fengyun-1c-debris",
        "lat": 21.51697925983901,
        "lon": 119.12345916305065,
        "alt_km": 862.5018265225817,
        "timestamp": "2025-12-07T09:35:10.069274+00:00",
        "meta_object_name": "FENGYUN 1C DEB",
        "meta_object_id": "1999-025AVH",
        "meta_epoch": "2025-12-02T22:13:04.439712",
        "meta_mean_motion": 14.02530933,
        "meta_eccentricity": 0.01341286,
        "meta_inclination": 98.7611,
        "meta_ra_of_asc_node": 118.3054,
        "meta_arg_of_pericenter": 111.9391,
        "meta_mean_anomaly": 15.7733,
        "meta_ephemeris_type": 0,
        "meta_classification_type": "U",
        "meta_norad_cat_id": 30823,
        "meta_element_set_no": 999,
        "meta_rev_at_epoch": 95896,
        "meta_bstar": 0.00074109072,
        "meta_mean_motion_dot": 1.194e-05,
        "meta_mean_motion_ddot": 0,
        "tle_line1": "1 30823U 99025AVH 25336.92574583  .00001194  00000+0  74109-3 0  9991",
        "tle_line2": "2 30823  98.7611 118.3054 0134128 111.9391  15.7733 14.02530933958969"
      },
      "geometry": {
        "type": "Point",
        "coordinates": [
          119.12345916305065,
          21.51697925983901
        ]
      }
    },
    {
      "type": "Feature",
      "properties": {
        "norad_id": 30826,
        "name": "FENGYUN 1C DEB",
        "group": "fengyun-1c-debris",
        "lat": 57.67158372293563,
        "lon": 161.55347753521977,
        "alt_km": 544.1357143991381,
        "timestamp": "2025-12-07T09:35:10.069284+00:00",
        "meta_object_name": "FENGYUN 1C DEB",
        "meta_object_id": "1999-025AVL",
        "meta_epoch": "2025-12-06T09:33:05.155776",
        "meta_mean_motion": 14.82147182,
        "meta_eccentricity": 0.01458234,
        "meta_inclination": 98.8666,
        "meta_ra_of_asc_node": 174.7246,
        "meta_arg_of_pericenter": 16.913,
        "meta_mean_anomaly": 100.4569,
        "meta_ephemeris_type": 0,
        "meta_classification_type": "U",
        "meta_norad_cat_id": 30826,
        "meta_element_set_no": 999,
        "meta_rev_at_epoch": 192,
        "meta_bstar": 0.00083049613,
        "meta_mean_motion_dot": 7.893e-05,
        "meta_mean_motion_ddot": 0,
        "tle_line1": "1 30826U 99025AVL 25340.39797634  .00007893  00000+0  83050-3 0  9991",
        "tle_line2": "2 30826  98.8666 174.7246 0145823  16.9130 100.4569 14.82147182  1923"
      },
      "geometry": {
        "type": "Point",
        "coordinates": [
          161.55347753521977,
          57.67158372293563
        ]
      }
    }
  ]
}